{
"type": "FeatureCollection",
"name": "AkoakoaWHIRestoration_20250225",
"crs": { "type": "name", "properties": { "name": "urn:ogc:def:crs:OGC:1.3:CRS84" } },
"features": [
{ "type": "Feature", "properties": { "Activity": "Reattached Corals", "SpeciesInfo": "3 Species" }, "geometry": { "type": "Point", "coordinates": [ -156.060655, 19.730794, 0.0 ] } },
{ "type": "Feature", "properties": { "Activity": "Reattached Corals", "SpeciesInfo": "POGR" }, "geometry": { "type": "Point", "coordinates": [ -155.900083891907911, 19.210424172128981, 0.0 ] } },
{ "type": "Feature", "properties": { "Activity": "Reattached Corals", "SpeciesInfo": "POLU" }, "geometry": { "type": "Point", "coordinates": [ -155.967793321589198, 19.580027444409041, 0.0 ] } },
{ "type": "Feature", "properties": { "Activity": "Reattached Corals", "SpeciesInfo": "MOCA" }, "geometry": { "type": "Point", "coordinates": [ -155.99561241059061, 19.636997699044539, 0.0 ] } },
{ "type": "Feature", "properties": { "Activity": "Rescued Corals", "SpeciesInfo": "3 Species" }, "geometry": { "type": "Point", "coordinates": [ -155.968616524904292, 19.578682346113851, 0.0 ] } },
{ "type": "Feature", "properties": { "Activity": "Rescued Corals", "SpeciesInfo": "12 Species" }, "geometry": { "type": "Point", "coordinates": [ -155.912389968174807, 19.42478981420135, 0.0 ] } },
{ "type": "Feature", "properties": { "Activity": "Rescued Corals", "SpeciesInfo": "6 Species" }, "geometry": { "type": "Point", "coordinates": [ -155.96795092144589, 19.579663782906191, 0.0 ] } },
{ "type": "Feature", "properties": { "Activity": "Rescued Corals", "SpeciesInfo": "MOCA" }, "geometry": { "type": "Point", "coordinates": [ -155.995695709420687, 19.637221707322951, 0.0 ] } },
{ "type": "Feature", "properties": { "Activity": "Rescued Corals", "SpeciesInfo": "8 Species" }, "geometry": { "type": "Point", "coordinates": [ -155.89912353891981, 19.37894747078014, 0.0 ] } },
{ "type": "Feature", "properties": { "Activity": "Rescued Corals", "SpeciesInfo": "13 Species" }, "geometry": { "type": "Point", "coordinates": [ -155.901784700590014, 20.18425406607264, 0.0 ] } },
{ "type": "Feature", "properties": { "Activity": "Rescued Corals", "SpeciesInfo": "5 Species" }, "geometry": { "type": "Point", "coordinates": [ -155.862748042917389, 19.952379122885969, 0.0 ] } },
{ "type": "Feature", "properties": { "Activity": "Coral Larvae Injected", "SpeciesInfo": "POLU" }, "geometry": { "type": "Point", "coordinates": [ -155.968205146001708, 19.579663087559918, 0.0 ] } },
{ "type": "Feature", "properties": { "Activity": "Reattached Corals", "SpeciesInfo": "3 Species" }, "geometry": { "type": "Point", "coordinates": [ -155.913166666666655, 19.422833333333333, 0.0 ] } },
{ "type": "Feature", "properties": { "Activity": "Reattached Corals", "SpeciesInfo": "3 Species" }, "geometry": { "type": "Point", "coordinates": [ -155.9124, 19.423133333333332, 0.0 ] } },
{ "type": "Feature", "properties": { "Activity": "Rescued Corals", "SpeciesInfo": "3 Species" }, "geometry": { "type": "Point", "coordinates": [ -155.912316666666669, 19.424633333333333, 0.0 ] } }
]
}
